NORAD_CAT_ID,OBJECT_NAME,OBJECT_TYPE,EPOCH,MEAN_MOTION,ECCENTRICITY,INCLINATION,RA_OF_ASC_NODE,ARG_OF_PERICENTER,MEAN_ANOMALY,BSTAR,MEAN_MOTION_DOT,MEAN_MOTION_DDOT,TLE_LINE0,TLE_LINE1,TLE_LINE2,SEMIMAJOR_AXIS,PERIOD,APOGEE,PERIGEE,DECAYED
55759.0,STARLINK-5081,PAYLOAD,2023-07-14 04:00:01,15.19914018,0.0003351,69.9999,149.6737,270.5254,3.9498,-0.043728,-0.00876127,0.0,0 STARLINK-5081,1 55759U 23028U   23195.16668981 -.00876127  00000-0 -43728-1 0  9999,2 55759  69.9999 149.6737 0003351 270.5254   3.9498 15.19914018 21283,6884.237,94.742,508.409,503.795,0.0
55759.0,STARLINK-5081,PAYLOAD,2023-07-14 14:00:01,15.19118467,0.0003338,69.9999,148.5881,270.6109,122.4329,-0.046826,-0.00913833,0.0,0 STARLINK-5081,1 55759U 23028U   23195.58334491 -.00913833  00000-0 -46826-1 0  9999,2 55759  69.9999 148.5881 0003338 270.6109 122.4329 15.19118467 21347,6886.641,94.792,510.804,506.207,0.0
55759.0,STARLINK-5081,PAYLOAD,2023-07-15 14:00:01,15.17157545,0.0003257,70.0001,145.9885,271.2375,185.5506,-0.049068,-0.00905465,0.0,0 STARLINK-5081,1 55759U 23028U   23196.58334491 -.00905465  00000-0 -49068-1 0  9993,2 55759  70.0001 145.9885 0003257 271.2375 185.5506 15.17157545 21504,6892.573,94.914,516.683,512.193,0.0
55759.0,STARLINK-5081,PAYLOAD,2023-07-16 14:00:01,15.15196728,0.000318,70.0004,143.3967,270.7589,242.733,-0.051403,-0.00897461,0.0,0 STARLINK-5081,1 55759U 23028U   23197.58334491 -.00897461  00000-0 -51403-1 0  9996,2 55759  70.0004 143.3967 0003180 270.7589 242.7330 15.15196728 21657,6898.518,95.037,522.577,518.19,0.0
55759.0,STARLINK-5081,PAYLOAD,2023-07-17 02:00:01,15.14219895,0.000338,70.0005,142.1038,270.7364,88.4687,-0.053243,-0.00903761,0.0,0 STARLINK-5081,1 55759U 23028U   23198.08334491 -.00903761  00000-0 -53243-1 0  9997,2 55759  70.0005 142.1038 0003380 270.7364  88.4687 15.14219895 21725,6901.485,95.098,525.683,521.017,0.0
55759.0,STARLINK-5081,PAYLOAD,2023-07-17 22:00:00,15.12637657,0.000324,70.0009,139.9532,266.781,311.3448,-0.060223,-0.00972034,0.0,0 STARLINK-5081,1 55759U 23028U   23198.91667824 -.00972034  00000-0 -60223-1 0  9993,2 55759  70.0009 139.9532 0003240 266.7810 311.3448 15.12637657 21853,6906.297,95.198,530.399,525.924,0.0
55759.0,STARLINK-5081,PAYLOAD,2023-07-18 12:00:00,15.11473632,0.000316,70.0006,138.451,272.1593,240.3252,-0.060376,-0.00945439,0.0,0 STARLINK-5081,1 55759U 23028U   23199.50001157 -.00945439  00000-0 -60376-1 0  9998,2 55759  70.0006 138.4510 0003160 272.1593 240.3252 15.11473632 21944,6909.842,95.271,533.891,529.524,0.0
55759.0,STARLINK-5081,PAYLOAD,2023-07-19 06:00:00,15.09979459,0.000326,70.0009,136.5233,272.4753,357.7993,-0.058482,-0.00883288,0.0,0 STARLINK-5081,1 55759U 23028U   23200.25001157 -.00883288  00000-0 -58482-1 0  9991,2 55759  70.0009 136.5233 0003260 272.4753 357.7993 15.09979459 22053,6914.4,95.366,538.519,534.011,0.0
55759.0,STARLINK-5081,PAYLOAD,2023-07-19 22:00:00,15.08722505,0.0003316,70.0011,134.8135,266.791,24.8455,-0.066961,-0.00969753,0.0,0 STARLINK-5081,1 55759U 23028U   23200.91667824 -.00969753  00000-0 -66961-1 0  9996,2 55759  70.0011 134.8135 0003316 266.7910  24.8455 15.08722505 22154,6918.24,95.445,542.399,537.81,0.0
55759.0,STARLINK-5081,PAYLOAD,2023-07-21 06:00:00,15.0606868,0.0003351,70.0008,131.404,272.2066,52.8026,-0.065643,-0.00890388,0.0,0 STARLINK-5081,1 55759U 23028U   23202.25001157 -.00890388  00000-0 -65643-1 0  9999,2 55759  70.0008 131.4040 0003351 272.2066  52.8026 15.06068680 22353,6926.364,95.613,550.55,545.908,0.0
55759.0,STARLINK-5081,PAYLOAD,2023-07-21 22:00:00,15.04799528,0.0003385,70.0008,129.7044,266.6176,70.3708,-0.073393,-0.00967654,0.0,0 STARLINK-5081,1 55759U 23028U   23202.91667824 -.00967654  00000-0 -73393-1 0  9993,2 55759  70.0008 129.7044 0003385 266.6176  70.3708 15.04799528 22456,6930.258,95.694,554.469,549.777,0.0
55759.0,STARLINK-5081,PAYLOAD,2023-07-24 14:00:01,14.99344133,0.0003121,70.0002,122.9399,270.2985,83.386,-0.0056772,-0.00068961,0.0,0 STARLINK-5081,1 55759U 23028U   23205.58334491 -.00068961  00000-0 -56772-2 0  9996,2 55759  70.0002 122.9399 0003121 270.2985  83.3860 14.99344133  2334,6947.059,96.042,571.092,566.755,0.0
55759.0,STARLINK-5081,PAYLOAD,2023-07-25 14:00:01,14.99265935,0.0003126,70.0002,120.4147,270.4518,79.2658,0.0046635,0.00057386,0.0,0 STARLINK-5081,1 55759U 23028U   23206.58335648  .00057386  00000-0  46635-2 0  9996,2 55759  70.0002 120.4147 0003126 270.4518  79.2658 14.99265935  2484,6947.3,96.047,571.337,566.993,0.0
55759.0,STARLINK-5081,PAYLOAD,2023-07-26 14:00:01,14.99259269,0.000327,70.0002,117.8897,266.9328,78.6814,0.0066868,0.00082607,0.0,0 STARLINK-5081,1 55759U 23028U   23207.58334491  .00082607  00000-0  66868-2 0  9996,2 55759  70.0002 117.8897 0003270 266.9328  78.6814 14.99259269  2632,6947.321,96.047,571.457,566.914,0.0
55759.0,STARLINK-5081,PAYLOAD,2023-07-26 22:00:01,14.99359559,0.0003352,70.0004,117.048,269.6872,74.6278,-0.0061262,-0.00074382,0.0,0 STARLINK-5081,1 55759U 23028U   23207.91668981 -.00074382  00000-0 -61262-2 0  9993,2 55759  70.0004 117.0480 0003352 269.6872  74.6278 14.99359559 23208,6947.011,96.041,571.205,566.547,0.0
55759.0,STARLINK-5081,PAYLOAD,2023-07-27 14:00:01,14.99232188,0.0003249,70.0002,115.3646,271.0584,70.5128,0.0071153,0.00087912,0.0,0 STARLINK-5081,1 55759U 23028U   23208.58334491  .00087912  00000-0  71153-2 0  9994,2 55759  70.0002 115.3646 0003249 271.0584  70.5128 14.99232188  2780,6947.404,96.049,571.527,567.012,0.0
55759.0,STARLINK-5081,PAYLOAD,2023-07-27 22:00:00,14.99297414,0.0003301,70.0006,114.5229,272.9765,67.1854,-0.0013896,-0.00017055,0.0,0 STARLINK-5081,1 55759U 23028U   23208.91667824 -.00017055  00000-0 -13896-2 0  9993,2 55759  70.0006 114.5229 0003301 272.9765  67.1854 14.99297414 23359,6947.203,96.045,571.361,566.775,0.0
55759.0,STARLINK-5081,PAYLOAD,2023-07-28 01:17:29,14.99288883,0.0003472,69.9986,114.1763,275.2297,84.8466,-0.00013971,-1.803e-05,0.0,0 STARLINK-5081,1 55759U 23028U   23209.05380940 -.00001803  00000-0 -13971-3 0  9999,2 55759  69.9986 114.1763 0003472 275.2297  84.8466 14.99288883 23385,6947.229,96.046,571.506,566.682,0.0
55759.0,STARLINK-5081,PAYLOAD,2023-07-28 17:18:12,14.99303463,0.0003451,69.9986,112.4926,272.5259,87.5505,-0.00014396,-1.855e-05,0.0,0 STARLINK-5081,1 55759U 23028U   23209.72097274 -.00001855  00000-0 -14396-3 0  9997,2 55759  69.9986 112.4926 0003451 272.5259  87.5505 14.99303463 23489,6947.184,96.045,571.447,566.652,0.0
55759.0,STARLINK-5081,PAYLOAD,2023-07-29 02:54:37,14.99312302,0.0002673,69.9998,111.4816,275.0347,85.0508,-2.4903e-05,-3.99e-06,0.0,0 STARLINK-5081,1 55759U 23028U   23210.12126475 -.00000399  00000-0 -24903-4 0  9997,2 55759  69.9998 111.4816 0002673 275.0347  85.0508 14.99312302 23545,6947.157,96.044,570.879,567.165,0.0
55759.0,STARLINK-5081,PAYLOAD,2023-07-29 18:55:21,14.99292759,0.0002724,70.0002,109.7958,267.7274,92.3574,0.00014165,1.639e-05,0.0,0 STARLINK-5081,1 55759U 23028U   23210.78843889  .00001639  00000-0  14165-3 0  9998,2 55759  70.0002 109.7958 0002724 267.7274  92.3574 14.99292759 23643,6947.217,96.045,570.975,567.19,0.0
55759.0,STARLINK-5081,PAYLOAD,2023-07-30 18:56:25,14.99308994,0.0002948,69.9992,107.2691,269.1369,90.9453,1.7443e-05,1.2e-06,0.0,0 STARLINK-5081,1 55759U 23028U   23211.78918413  .00000120  00000-0  17443-4 0  9992,2 55759  69.9992 107.2691 0002948 269.1369  90.9453 14.99308994 23799,6947.167,96.044,571.08,566.984,0.0
55759.0,STARLINK-5081,PAYLOAD,2023-07-31 02:56:46,14.99314914,0.0003012,69.9992,106.4271,269.3742,90.7073,7.6935e-05,8.48e-06,0.0,0 STARLINK-5081,1 55759U 23028U   23212.12276030  .00000848  00000-0  76935-4 0  9991,2 55759  69.9992 106.4271 0003012 269.3742  90.7073 14.99314914 23845,6947.149,96.044,571.106,566.921,0.0
55759.0,STARLINK-5081,PAYLOAD,2023-07-31 18:57:31,14.9929527,0.0002893,69.9992,104.7419,266.5635,93.5194,-5.7678e-05,-7.99e-06,0.0,0 STARLINK-5081,1 55759U 23028U   23212.78994288 -.00000799  00000-0 -57678-4 0  9995,2 55759  69.9992 104.7419 0002893 266.5635  93.5194 14.99295270 23945,6947.209,96.045,571.084,567.065,0.0
55759.0,STARLINK-5081,PAYLOAD,2023-08-02 01:22:53,14.99303703,0.0002955,69.9992,101.5414,266.3449,93.7373,-5.4227e-05,-7.57e-06,0.0,0 STARLINK-5081,1 55759U 23028U   23214.05755796 -.00000757  00000-0 -54227-4 0  9997,2 55759  69.9992 101.5414 0002955 266.3449  93.7373 14.99303703 24139,6947.183,96.045,571.101,566.996,0.0
55759.0,STARLINK-5081,PAYLOAD,2023-08-03 01:23:57,14.99303831,0.0002927,69.9993,99.0143,263.879,96.2036,0.00014339,1.661e-05,0.0,0 STARLINK-5081,1 55759U 23028U   23215.05830373  .00001661  00000-0  14339-3 0  9995,2 55759  69.9993  99.0143 0002927 263.8790  96.2036 14.99303831 24282,6947.183,96.045,571.081,567.015,0.0
55759.0,STARLINK-5081,PAYLOAD,2023-08-03 19:00:46,14.99293076,0.0002831,69.9994,97.161,262.9084,97.1754,-4.9782e-05,-7.03e-06,0.0,0 STARLINK-5081,1 55759U 23028U   23215.79220173 -.00000703  00000-0 -49782-4 0  9996,2 55759  69.9994  97.1610 0002831 262.9084  97.1754 14.99293076 24399,6947.216,96.045,571.048,567.114,0.0
55759.0,STARLINK-5081,PAYLOAD,2023-08-04 19:01:50,14.99302503,0.0003025,69.9994,94.6356,258.8339,101.2481,-1.8109e-05,-3.15e-06,0.0,0 STARLINK-5081,1 55759U 23028U   23216.79294834 -.00000315  00000-0 -18109-4 0  9990,2 55759  69.9994  94.6356 0003025 258.8339 101.2481 14.99302503 24548,6947.187,96.045,571.154,566.951,0.0
55759.0,STARLINK-5081,PAYLOAD,2023-08-05 19:02:54,14.99304618,0.0003057,69.9992,92.1072,262.2135,97.8678,0.00014388,1.667e-05,0.0,0 STARLINK-5081,1 55759U 23028U   23217.79369145  .00001667  00000-0  14388-3 0  9992,2 55759  69.9992  92.1072 0003057 262.2135  97.8678 14.99304618 24695,6947.181,96.045,571.169,566.922,0.0
55759.0,STARLINK-5081,PAYLOAD,2023-08-06 09:27:34,14.99293287,0.0003276,69.9991,90.5902,268.3838,91.6946,-4.1869e-05,-6.06e-06,0.0,0 STARLINK-5081,1 55759U 23028U   23218.39415344 -.00000606  00000-0 -41869-4 0  9991,2 55759  69.9991  90.5902 0003276 268.3838  91.6946 14.99293287 24787,6947.216,96.045,571.357,566.805,0.0
